0 DIRECTV 3 (DBS/NIMIQ 3)
1 23598U 95029A   13280.53266040  .00000035  00000-0  10000-3 0  8443
2 23598 003.9462 066.0038 0002704 014.9622 345.2229 00.99000829 66874
0 DIRECTV 3 (DBS/NIMIQ 3)
1 23598U 95029A   13282.55264465 -.00000007  00000-0  10000-3 0  8457
2 23598 003.9504 065.9834 0002521 012.3483 347.7983 00.99001659 66895
0 DIRECTV 3 (DBS/NIMIQ 3)
1 23598U 95029A   13284.57272375 -.00000061  00000-0  10000-3 0  8461
2 23598 003.9547 065.9631 0002476 011.3128 348.8352 00.99002506 66918
0 DIRECTV 3 (DBS/NIMIQ 3)
1 23598U 95029A   13287.60286440 -.00000149  00000-0  10000-3 0  8474
2 23598 003.9609 065.9351 0002462 011.4502 348.7193 00.99003680 66947
0 DIRECTV 3 (DBS/NIMIQ 3)
1 23598U 95029A   13289.62282934 -.00000203  00000-0  10000-3 0  8484
2 23598 003.9651 065.9157 0002152 007.7180 352.4221 00.99004237 66969
0 DIRECTV 3 (DBS/NIMIQ 3)
1 23598U 95029A   13291.64269472 -.00000248  00000-0  10000-3 0  8491
2 23598 003.9692 065.8971 0002069 006.9875 353.0949 00.99004568 66989
0 DIRECTV 3 (DBS/NIMIQ 3)
1 23598U 95029A   13293.66254971 -.00000279  00000-0  10000-3 0  8509
2 23598 003.9734 065.8777 0001979 006.1866 353.8379 00.99004616 67004
